HELIOS 1B               
1 25977U 99064A   26076.65030254  .00001560  00000+0  17751-3 0  9999
2 25977  98.1688 339.1273 0002286  63.6260 296.5190 14.87730442686441
TERRA                   
1 25994U 99068A   26076.88642688  .00000375  00000+0  85405-4 0  9992
2 25994  97.9576 130.0074 0003186 133.6614  39.5265 14.61023383396279
SL-16 R/B               
1 26070U 00006B   26076.43086391 -.00000177  00000+0 -65401-4 0  9992
2 26070  71.0003  81.5586 0016334 178.2590 181.8593 14.15824038349658
TITAN 4B R/B            
1 26474U 00047B   26076.84604266  .00003346  00000+0  21222-3 0  9998
2 26474  67.9913  17.5733 0038889  25.7061 334.6010 15.09643549394147
ENVISAT                 
1 27386U 02009A   26076.87806838  .00000098  00000+0  45637-4 0  9991
2 27386  98.3742  30.2811 0001305  82.5058 296.4268 14.39039880260351
IDEFIX & ARIANE 42P R/B 
1 27422U 02021B   26076.81632222  .00000243  00000+0  10887-3 0  9994
2 27422  98.5879  15.3258 0012055 158.2640 201.9056 14.31031735245189
AQUA                    
1 27424U 02022A   26076.89070262  .00000876  00000+0  18458-3 0  9999
2 27424  98.4188  44.4058 0000705 108.6502 277.1715 14.61996341269931
CZ-4B R/B               
1 27432U 02024C   26076.41896183  .00000031  00000+0  38970-4 0  9991
2 27432  98.8822 129.7861 0050102   2.3402   8.0799 14.14548900230330
MIDORI II (ADEOS-II)    
1 27597U 02056A   26076.36420164  .00000270  00000+0  12399-3 0  9995
2 27597  98.7781  34.8954 0001294  33.7265 326.3998 14.29291076211394
H-2A R/B                
1 27601U 02056E   26076.39401002  .00000227  00000+0  93952-4 0  9991
2 27601  98.3216  36.4669 0070937 137.8889 335.5025 14.33765774215212
CZ-4B R/B               
1 28059U 03049C   26076.84195013  .00000309  00000+0  82547-4 0  9993
2 28059  98.6886  72.0671 0047618 205.5905 154.2934 14.55027789187783
CZ-2C R/B               
1 28222U 04012C   26076.60158837  .00047966  00000+0  47736-3 0  9993
2 28222  97.7215 142.6489 0012963 277.3923  82.5862 15.65474299205513
SL-16 R/B               
1 28353U 04021B   26076.80109887 -.00000260  00000+0 -11065-3 0  9995
2 28353  70.9997 215.4694 0004473 358.9291   1.1821 14.14594515123985
CZ-4B R/B               
1 28415U 04035C   26076.82724039  .00005995  00000+0  21138-3 0  9993
2 28415  97.3484 110.9725 0030225 301.3394  58.4889 15.29206857181150
CZ-2C R/B               
1 28480U 04046B   26076.75957539  .00000124  00000+0  60890-4 0  9990
2 28480  98.1981 351.2410 0140314 130.6844 230.6630 14.26994914109655
ARIANE 5 R/B            
1 28499U 04049H   26076.44733517  .00000698  00000+0  83581-4 0  9995
2 28499  98.2639 245.1954 0083397 326.6505  32.9471 14.85280003146949
CZ-2D R/B               
1 28738U 05024B   26076.78887304  .00033342  00000+0  39929-3 0  9994
2 28738  97.3586  92.2363 0004433  24.3625 335.7841 15.60885881141040
